{"type": "FeatureCollection", "features": [ {"type": "Feature", "properties": {"norad_id": 66935, "name": "STARLINK-36127", "group": "last-30-days", "lat": 9.643412011469657, "lon": 52.70397945857366, "alt_km": 285.8006651539108, "timestamp": "2025-12-13T18:50:03.175563+00:00", "meta": {"OBJECT_NAME": "STARLINK-36127", "OBJECT_ID": "2025-286L", "EPOCH": "2025-12-13T06:00:02.000160", "MEAN_MOTION": 15.96985083, "ECCENTRICITY": 8.617e-05, "INCLINATION": 53.1573, "RA_OF_ASC_NODE": 48.1267, "ARG_OF_PERICENTER": 81.7353, "MEAN_ANOMALY": 95.6175, "EPHEMERIS_TYPE": 0, "CLASSIFICATION_TYPE": "U", "NORAD_CAT_ID": 66935, "ELEMENT_SET_NO": 999, "REV_AT_EPOCH": 207, "BSTAR": -0.0028067139, "MEAN_MOTION_DOT": -0.01243177, "MEAN_MOTION_DDOT": 0.00047755164}, "tle": {"line1": "1 66935U 25286L   25347.25002315 -.01243177  47755-3 -28067-2 0  9994", "line2": "2 66935  53.1573  48.1267 0000861  81.7353  95.6175 15.96985083  2071"}}, "geometry": {"type": "Point", "coordinates": [52.70397945857366, 9.643412011469657]}}, {"type": "Feature", "properties": {"norad_id": 66936, "name": "STARLINK-36160", "group": "last-30-days", "lat": 10.743682052081274, "lon": 53.560834482368875, "alt_km": 285.45609378216886, "timestamp": "2025-12-13T18:50:03.175576+00:00", "meta": {"OBJECT_NAME": "STARLINK-36160", "OBJECT_ID": "2025-286M", "EPOCH": "2025-12-13T06:00:02.000160", "MEAN_MOTION": 15.97064683, "ECCENTRICITY": 8.62e-05, "INCLINATION": 53.1573, "RA_OF_ASC_NODE": 48.1243, "ARG_OF_PERICENTER": 86.0793, "MEAN_ANOMALY": 92.513, "EPHEMERIS_TYPE": 0, "CLASSIFICATION_TYPE": "U", "NORAD_CAT_ID": 66936, "ELEMENT_SET_NO": 999, "REV_AT_EPOCH": 207, "BSTAR": -0.0028073847, "MEAN_MOTION_DOT": -0.01248871, "MEAN_MOTION_DDOT": 0.00048193661}, "tle": {"line1": "1 66936U 25286M   25347.25002315 -.01248871  48194-3 -28074-2 0  9997", "line2": "2 66936  53.1573  48.1243 0000862  86.0793  92.5130 15.97064683  2075"}}, "geometry": {"type": "Point", "coordinates": [53.560834482368875, 10.743682052081274]}}, {"type": "Feature", "properties": {"norad_id": 66937, "name": "STARLINK-36165", "group": "last-30-days", "lat": 11.865037350874113, "lon": 54.4421028288001, "alt_km": 284.9193007756039, "timestamp": "2025-12-13T18:50:03.175586+00:00", "meta": {"OBJECT_NAME": "STARLINK-36165", "OBJECT_ID": "2025-286N", "EPOCH": "2025-12-13T06:00:02.000160", "MEAN_MOTION": 15.97138037, "ECCENTRICITY": 0.000102, "INCLINATION": 53.1572, "RA_OF_ASC_NODE": 48.1214, "ARG_OF_PERICENTER": 74.5439, "MEAN_ANOMALY": 105.3215, "EPHEMERIS_TYPE": 0, "CLASSIFICATION_TYPE": "U", "NORAD_CAT_ID": 66937, "ELEMENT_SET_NO": 999, "REV_AT_EPOCH": 207, "BSTAR": -0.0027883668, "MEAN_MOTION_DOT": -0.01245501, "MEAN_MOTION_DDOT": 0.00047993794}, "tle": {"line1": "1 66937U 25286N   25347.25002315 -.01245501  47994-3 -27884-2 0  9990", "line2": "2 66937  53.1572  48.1214 0001020  74.5439 105.3215 15.97138037  2071"}}, "geometry": {"type": "Point", "coordinates": [54.4421028288001, 11.865037350874113]}}, {"type": "Feature", "properties": {"norad_id": 66938, "name": "STARLINK-36155", "group": "last-30-days", "lat": 12.994374287912445, "lon": 55.33941375367809, "alt_km": 284.67698817173095, "timestamp": "2025-12-13T18:50:03.175597+00:00", "meta": {"OBJECT_NAME": "STARLINK-36155", "OBJECT_ID": "2025-286P", "EPOCH": "2025-12-13T06:00:02.000160", "MEAN_MOTION": 15.97215745, "ECCENTRICITY": 8.505e-05, "INCLINATION": 53.157, "RA_OF_ASC_NODE": 48.1186, "ARG_OF_PERICENTER": 87.4801, "MEAN_ANOMALY": 93.6647, "EPHEMERIS_TYPE": 0, "CLASSIFICATION_TYPE": "U", "NORAD_CAT_ID": 66938, "ELEMENT_SET_NO": 999, "REV_AT_EPOCH": 207, "BSTAR": -0.0027768022, "MEAN_MOTION_DOT": -0.01245644, "MEAN_MOTION_DDOT": 0.00048042439}, "tle": {"line1": "1 66938U 25286P   25347.25002315 -.01245644  48042-3 -27768-2 0  9995", "line2": "2 66938  53.1570  48.1186 0000850  87.4801  93.6647 15.97215745  2074"}}, "geometry": {"type": "Point", "coordinates": [55.33941375367809, 12.994374287912445]}}, {"type": "Feature", "properties": {"norad_id": 66939, "name": "STARLINK-36154", "group": "last-30-days", "lat": 15.429094577094546, "lon": 57.312274099158316, "alt_km": 283.71268630869326, "timestamp": "2025-12-13T18:50:03.175609+00:00", "meta": {"OBJECT_NAME": "STARLINK-36154", "OBJECT_ID": "2025-286Q", "EPOCH": "2025-12-13T06:00:02.000160", "MEAN_MOTION": 15.97396944, "ECCENTRICITY": 9.517e-05, "INCLINATION": 53.1569, "RA_OF_ASC_NODE": 48.1129, "ARG_OF_PERICENTER": 78.1599, "MEAN_ANOMALY": 105.7509, "EPHEMERIS_TYPE": 0, "CLASSIFICATION_TYPE": "U", "NORAD_CAT_ID": 66939, "ELEMENT_SET_NO": 999, "REV_AT_EPOCH": 207, "BSTAR": -0.0027877017, "MEAN_MOTION_DOT": -0.01262928, "MEAN_MOTION_DDOT": 0.00049355383}, "tle": {"line1": "1 66939U 25286Q   25347.25002315 -.01262928  49355-3 -27877-2 0  9999", "line2": "2 66939  53.1569  48.1129 0000951  78.1599 105.7509 15.97396944  2076"}}, "geometry": {"type": "Point", "coordinates": [57.312274099158316, 15.429094577094546]}}, {"type": "Feature", "properties": {"norad_id": 66940, "name": "STARLINK-36121", "group": "last-30-days", "lat": 16.500349552045183, "lon": 58.19897431394043, "alt_km": 283.3372813257738, "timestamp": "2025-12-13T18:50:03.175619+00:00", "meta": {"OBJECT_NAME": "STARLINK-36121", "OBJECT_ID": "2025-286R", "EPOCH": "2025-12-13T06:00:02.000160", "MEAN_MOTION": 15.97468585, "ECCENTRICITY": 9.178e-05, "INCLINATION": 53.1568, "RA_OF_ASC_NODE": 48.1101, "ARG_OF_PERICENTER": 78.1817, "MEAN_ANOMALY": 106.9573, "EPHEMERIS_TYPE": 0, "CLASSIFICATION_TYPE": "U", "NORAD_CAT_ID": 66940, "ELEMENT_SET_NO": 999, "REV_AT_EPOCH": 207, "BSTAR": -0.002769667, "MEAN_MOTION_DOT": -0.01259779, "MEAN_MOTION_DDOT": 0.0004916828}, "tle": {"line1": "1 66940U 25286R   25347.25002315 -.01259779  49168-3 -27697-2 0  9993", "line2": "2 66940  53.1568  48.1101 0000917  78.1817 106.9573 15.97468585  2077"}}, "geometry": {"type": "Point", "coordinates": [58.19897431394043, 16.500349552045183]}}, {"type": "Feature", "properties": {"norad_id": 66941, "name": "STARLINK-36088", "group": "last-30-days", "lat": 14.297443957534362, "lon": 56.38822141101039, "alt_km": 284.1147028485293, "timestamp": "2025-12-13T18:50:03.175630+00:00", "meta": {"OBJECT_NAME": "STARLINK-36088", "OBJECT_ID": "2025-286S", "EPOCH": "2025-12-13T06:00:02.000160", "MEAN_MOTION": 15.97323075, "ECCENTRICITY": 9.642e-05, "INCLINATION": 53.1568, "RA_OF_ASC_NODE": 48.1154, "ARG_OF_PERICENTER": 77.4678, "MEAN_ANOMALY": 105.1499, "EPHEMERIS_TYPE": 0, "CLASSIFICATION_TYPE": "U", "NORAD_CAT_ID": 66941, "ELEMENT_SET_NO": 999, "REV_AT_EPOCH": 207, "BSTAR": -0.002813975, "MEAN_MOTION_DOT": -0.01269552, "MEAN_MOTION_DDOT": 0.00049789423}, "tle": {"line1": "1 66941U 25286S   25347.25002315 -.01269552  49789-3 -28140-2 0  9997", "line2": "2 66941  53.1568  48.1154 0000964  77.4678 105.1499 15.97323075  2077"}}, "geometry": {"type": "Point", "coordinates": [56.38822141101039, 14.297443957534362]}}, {"type": "Feature", "properties": {"norad_id": 66942, "name": "STARLINK-36100", "group": "last-30-days", "lat": 17.62118406701388, "lon": 59.14120912552911, "alt_km": 282.9715180258863, "timestamp": "2025-12-13T18:50:03.175640+00:00", "meta": {"OBJECT_NAME": "STARLINK-36100", "OBJECT_ID": "2025-286T", "EPOCH": "2025-12-13T06:00:02.000160", "MEAN_MOTION": 15.97552498, "ECCENTRICITY": 9.034e-05, "INCLINATION": 53.1567, "RA_OF_ASC_NODE": 48.1076, "ARG_OF_PERICENTER": 80.9683, "MEAN_ANOMALY": 105.457, "EPHEMERIS_TYPE": 0, "CLASSIFICATION_TYPE": "U", "NORAD_CAT_ID": 66942, "ELEMENT_SET_NO": 999, "REV_AT_EPOCH": 200, "BSTAR": -0.0027783171, "MEAN_MOTION_DOT": -0.01269485, "MEAN_MOTION_DDOT": 0.00049903698}, "tle": {"line1": "1 66942U 25286T   25347.25002315 -.01269485  49904-3 -27783-2 0  9994", "line2": "2 66942  53.1567  48.1076 0000903  80.9683 105.4570 15.97552498  2007"}}, "geometry": {"type": "Point", "coordinates": [59.14120912552911, 17.62118406701388]}}, {"type": "Feature", "properties": {"norad_id": 66943, "name": "STARLINK-36109", "group": "last-30-days", "lat": 18.94149192454472, "lon": 60.271049927943636, "alt_km": 282.58329291164864, "timestamp": "2025-12-13T18:50:03.175651+00:00", "meta": {"OBJECT_NAME": "STARLINK-36109", "OBJECT_ID": "2025-286U", "EPOCH": "2025-12-13T06:00:02.000160", "MEAN_MOTION": 15.9765377, "ECCENTRICITY": 8.093e-05, "INCLINATION": 53.1566, "RA_OF_ASC_NODE": 48.1043, "ARG_OF_PERICENTER": 88.7915, "MEAN_ANOMALY": 99.1485, "EPHEMERIS_TYPE": 0, "CLASSIFICATION_TYPE": "U", "NORAD_CAT_ID": 66943, "ELEMENT_SET_NO": 999, "REV_AT_EPOCH": 200, "BSTAR": -0.0027817756, "MEAN_MOTION_DOT": -0.01278112, "MEAN_MOTION_DDOT": 0.00050576337}, "tle": {"line1": "1 66943U 25286U   25347.25002315 -.01278112  50576-3 -27818-2 0  9998", "line2": "2 66943  53.1566  48.1043 0000809  88.7915  99.1485 15.97653770  2009"}}, "geometry": {"type": "Point", "coordinates": [60.271049927943636, 18.94149192454472]}}, {"type": "Feature", "properties": {"norad_id": 66944, "name": "STARLINK-36112", "group": "last-30-days", "lat": 19.989202054722032, "lon": 61.184726209746124, "alt_km": 282.00926485322543, "timestamp": "2025-12-13T18:50:03.175662+00:00", "meta": {"OBJECT_NAME": "STARLINK-36112", "OBJECT_ID": "2025-286V", "EPOCH": "2025-12-13T06:00:02.000160", "MEAN_MOTION": 15.97733928, "ECCENTRICITY": 0.0001025, "INCLINATION": 53.1566, "RA_OF_ASC_NODE": 48.1017, "ARG_OF_PERICENTER": 75.1871, "MEAN_ANOMALY": 113.9674, "EPHEMERIS_TYPE": 0, "CLASSIFICATION_TYPE": "U", "NORAD_CAT_ID": 66944, "ELEMENT_SET_NO": 999, "REV_AT_EPOCH": 207, "BSTAR": -0.002793665, "MEAN_MOTION_DOT": -0.01289195, "MEAN_MOTION_DDOT": 0.00051421112}, "tle": {"line1": "1 66944U 25286V   25347.25002315 -.01289195  51421-3 -27937-2 0  9994", "line2": "2 66944  53.1566  48.1017 0001025  75.1871 113.9674 15.97733928  2079"}}, "geometry": {"type": "Point", "coordinates": [61.184726209746124, 19.989202054722032]}}]}